[Satellite]
VERSION=1.1
NAME=IRIDIUM 96 [P]
NICKNAME=IRIDIUM 96 [P]
TLE1=1 27376U 02005E   18020.82683427  .00026813 -11791-5  30014-3 0  9999
TLE2=2 27376  86.3813 226.4230 0323876  48.7943 314.0739 15.18385519248220
